{"type": "FeatureCollection", "features": [ {"type": "Feature", "properties": {"norad_id": 66747, "name": "W-SERIES 5", "group": "last-30-days", "lat": 58.57212398023941, "lon": -96.48892958300428, "alt_km": 507.2467147403304, "timestamp": "2025-12-25T14:48:23.569756+00:00", "meta": {"OBJECT_NAME": "W-SERIES 5", "OBJECT_ID": "2025-276CK", "EPOCH": "2025-12-25T08:00:01.000224", "MEAN_MOTION": 15.17591457, "ECCENTRICITY": 0.00015559, "INCLINATION": 97.4407, "RA_OF_ASC_NODE": 70.8831, "ARG_OF_PERICENTER": 192.5033, "MEAN_ANOMALY": 179.711, "EPHEMERIS_TYPE": 0, "CLASSIFICATION_TYPE": "U", "NORAD_CAT_ID": 66747, "ELEMENT_SET_NO": 999, "REV_AT_EPOCH": 130, "BSTAR": -0.002914651, "MEAN_MOTION_DOT": -0.00058128, "MEAN_MOTION_DDOT": 0}, "tle": {"line1": "1 66747U 25276CK  25359.33334491 -.00058128  00000+0 -29147-2 0  9996", "line2": "2 66747  97.4407  70.8831 0001555 192.5033 179.7110 15.17591457  1304"}}, "geometry": {"type": "Point", "coordinates": [-96.48892958300428, 58.57212398023941]}}, {"type": "Feature", "properties": {"norad_id": 66748, "name": "TRANSPORTER-15CL", "group": "last-30-days", "lat": 1.9739904619563537, "lon": -108.55822918799606, "alt_km": 512.4947863729467, "timestamp": "2025-12-25T14:48:23.569765+00:00", "meta": {"OBJECT_NAME": "TRANSPORTER-15CL", "OBJECT_ID": "2025-276CL", "EPOCH": "2025-12-25T06:07:06.277728", "MEAN_MOTION": 15.18599391, "ECCENTRICITY": 0.0002585, "INCLINATION": 97.44, "RA_OF_ASC_NODE": 70.8275, "ARG_OF_PERICENTER": 258.0331, "MEAN_ANOMALY": 102.0614, "EPHEMERIS_TYPE": 0, "CLASSIFICATION_TYPE": "U", "NORAD_CAT_ID": 66748, "ELEMENT_SET_NO": 999, "REV_AT_EPOCH": 402, "BSTAR": 0.0013305435, "MEAN_MOTION_DOT": 0.00027538, "MEAN_MOTION_DDOT": 0}, "tle": {"line1": "1 66748U 25276CL  25359.25493377  .00027538  00000+0  13305-2 0  9995", "line2": "2 66748  97.4400  70.8275 0002585 258.0331 102.0614 15.18599391  4029"}}, "geometry": {"type": "Point", "coordinates": [-108.55822918799606, 1.9739904619563537]}}, {"type": "Feature", "properties": {"norad_id": 66749, "name": "TRANSPORTER-15CM", "group": "last-30-days", "lat": 32.86070999663345, "lon": -103.990437591276, "alt_km": 508.99463000960895, "timestamp": "2025-12-25T14:48:23.569774+00:00", "meta": {"OBJECT_NAME": "TRANSPORTER-15CM", "OBJECT_ID": "2025-276CM", "EPOCH": "2025-12-25T06:15:05.662080", "MEAN_MOTION": 15.17909159, "ECCENTRICITY": 0.00020652, "INCLINATION": 97.4395, "RA_OF_ASC_NODE": 70.8173, "ARG_OF_PERICENTER": 177.9988, "MEAN_ANOMALY": 182.1254, "EPHEMERIS_TYPE": 0, "CLASSIFICATION_TYPE": "U", "NORAD_CAT_ID": 66749, "ELEMENT_SET_NO": 999, "REV_AT_EPOCH": 402, "BSTAR": 0.00049973746, "MEAN_MOTION_DOT": 0.00010074, "MEAN_MOTION_DDOT": 0}, "tle": {"line1": "1 66749U 25276CM  25359.26048220  .00010074  00000+0  49974-3 0  9999", "line2": "2 66749  97.4395  70.8173 0002065 177.9988 182.1254 15.17909159  4025"}}, "geometry": {"type": "Point", "coordinates": [-103.990437591276, 32.86070999663345]}}, {"type": "Feature", "properties": {"norad_id": 66750, "name": "TRANSPORTER-15CN", "group": "last-30-days", "lat": 14.541599096521601, "lon": -106.86507434814, "alt_km": 511.1931400135809, "timestamp": "2025-12-25T14:48:23.569783+00:00", "meta": {"OBJECT_NAME": "TRANSPORTER-15CN", "OBJECT_ID": "2025-276CN", "EPOCH": "2025-12-25T06:10:16.826016", "MEAN_MOTION": 15.18060695, "ECCENTRICITY": 0.00023386, "INCLINATION": 97.4434, "RA_OF_ASC_NODE": 70.8376, "ARG_OF_PERICENTER": 144.473, "MEAN_ANOMALY": 215.666, "EPHEMERIS_TYPE": 0, "CLASSIFICATION_TYPE": "U", "NORAD_CAT_ID": 66750, "ELEMENT_SET_NO": 999, "REV_AT_EPOCH": 402, "BSTAR": 0.00048240717, "MEAN_MOTION_DOT": 9.765e-05, "MEAN_MOTION_DDOT": 0}, "tle": {"line1": "1 66750U 25276CN  25359.25713919  .00009765  00000+0  48241-3 0  9995", "line2": "2 66750  97.4434  70.8376 0002338 144.4730 215.6660 15.18060695  4020"}}, "geometry": {"type": "Point", "coordinates": [-106.86507434814, 14.541599096521601]}}, {"type": "Feature", "properties": {"norad_id": 66751, "name": "ICEYE-X58", "group": "last-30-days", "lat": 35.469033560579916, "lon": -103.48232076925835, "alt_km": 508.9373577008446, "timestamp": "2025-12-25T14:48:23.569795+00:00", "meta": {"OBJECT_NAME": "ICEYE-X58", "OBJECT_ID": "2025-276CP", "EPOCH": "2025-12-25T06:15:45.442368", "MEAN_MOTION": 15.17827886, "ECCENTRICITY": 0.00025225, "INCLINATION": 97.4408, "RA_OF_ASC_NODE": 70.8249, "ARG_OF_PERICENTER": 195.1148, "MEAN_ANOMALY": 165.0011, "EPHEMERIS_TYPE": 0, "CLASSIFICATION_TYPE": "U", "NORAD_CAT_ID": 66751, "ELEMENT_SET_NO": 999, "REV_AT_EPOCH": 402, "BSTAR": 0.00041917903, "MEAN_MOTION_DOT": 8.418e-05, "MEAN_MOTION_DDOT": 0}, "tle": {"line1": "1 66751U 25276CP  25359.26094262  .00008418  00000+0  41918-3 0  9998", "line2": "2 66751  97.4408  70.8249 0002522 195.1148 165.0011 15.17827886  4022"}}, "geometry": {"type": "Point", "coordinates": [-103.48232076925835, 35.469033560579916]}}, {"type": "Feature", "properties": {"norad_id": 66752, "name": "ICEYE-X59", "group": "last-30-days", "lat": 53.739944445657464, "lon": -98.57051768689865, "alt_km": 508.09484066492405, "timestamp": "2025-12-25T14:48:23.569805+00:00", "meta": {"OBJECT_NAME": "ICEYE-X59", "OBJECT_ID": "2025-276CQ", "EPOCH": "2025-12-25T04:45:38.399040", "MEAN_MOTION": 15.17630236, "ECCENTRICITY": 0.0001955, "INCLINATION": 97.4402, "RA_OF_ASC_NODE": 70.7555, "ARG_OF_PERICENTER": 222.6966, "MEAN_ANOMALY": 137.4116, "EPHEMERIS_TYPE": 0, "CLASSIFICATION_TYPE": "U", "NORAD_CAT_ID": 66752, "ELEMENT_SET_NO": 999, "REV_AT_EPOCH": 401, "BSTAR": 0.00047992498, "MEAN_MOTION_DOT": 9.594e-05, "MEAN_MOTION_DDOT": 0}, "tle": {"line1": "1 66752U 25276CQ  25359.19836110  .00009594  00000+0  47992-3 0  9991", "line2": "2 66752  97.4402  70.7555 0001955 222.6966 137.4116 15.17630236  4018"}}, "geometry": {"type": "Point", "coordinates": [-98.57051768689865, 53.739944445657464]}}, {"type": "Feature", "properties": {"norad_id": 66753, "name": "ICEYE-X60", "group": "last-30-days", "lat": 75.15133405470915, "lon": -79.3135434736259, "alt_km": 507.2082033978386, "timestamp": "2025-12-25T14:48:23.569814+00:00", "meta": {"OBJECT_NAME": "ICEYE-X60", "OBJECT_ID": "2025-276CR", "EPOCH": "2025-12-25T04:51:32.169888", "MEAN_MOTION": 15.17409112, "ECCENTRICITY": 0.00011096, "INCLINATION": 97.4404, "RA_OF_ASC_NODE": 70.7461, "ARG_OF_PERICENTER": 257.8887, "MEAN_ANOMALY": 102.2223, "EPHEMERIS_TYPE": 0, "CLASSIFICATION_TYPE": "U", "NORAD_CAT_ID": 66753, "ELEMENT_SET_NO": 999, "REV_AT_EPOCH": 401, "BSTAR": 0.00051177118, "MEAN_MOTION_DOT": 0.00010171, "MEAN_MOTION_DDOT": 0}, "tle": {"line1": "1 66753U 25276CR  25359.20245567  .00010171  00000+0  51177-3 0  9997", "line2": "2 66753  97.4404  70.7461 0001109 257.8887 102.2223 15.17409112  4016"}}, "geometry": {"type": "Point", "coordinates": [-79.3135434736259, 75.15133405470915]}}, {"type": "Feature", "properties": {"norad_id": 66754, "name": "ICEYE-X61", "group": "last-30-days", "lat": 30.338725151404063, "lon": -104.44175145716628, "alt_km": 509.3177666890424, "timestamp": "2025-12-25T14:48:23.569823+00:00", "meta": {"OBJECT_NAME": "ICEYE-X61", "OBJECT_ID": "2025-276CS", "EPOCH": "2025-12-25T03:04:32.723328", "MEAN_MOTION": 15.17866182, "ECCENTRICITY": 0.00024882, "INCLINATION": 97.4402, "RA_OF_ASC_NODE": 70.6914, "ARG_OF_PERICENTER": 183.2892, "MEAN_ANOMALY": 176.8326, "EPHEMERIS_TYPE": 0, "CLASSIFICATION_TYPE": "U", "NORAD_CAT_ID": 66754, "ELEMENT_SET_NO": 999, "REV_AT_EPOCH": 400, "BSTAR": 0.00028922726, "MEAN_MOTION_DOT": 5.792e-05, "MEAN_MOTION_DDOT": 0}, "tle": {"line1": "1 66754U 25276CS  25359.12815652  .00005792  00000+0  28923-3 0  9993", "line2": "2 66754  97.4402  70.6914 0002488 183.2892 176.8326 15.17866182  4000"}}, "geometry": {"type": "Point", "coordinates": [-104.44175145716628, 30.338725151404063]}}, {"type": "Feature", "properties": {"norad_id": 66755, "name": "ICEYE-X62", "group": "last-30-days", "lat": 55.04861046454793, "lon": -98.06346982987861, "alt_km": 507.7013518220874, "timestamp": "2025-12-25T14:48:23.569835+00:00", "meta": {"OBJECT_NAME": "ICEYE-X62", "OBJECT_ID": "2025-276CT", "EPOCH": "2025-12-25T08:00:01.000224", "MEAN_MOTION": 15.17675138, "ECCENTRICITY": 0.00011052, "INCLINATION": 97.4401, "RA_OF_ASC_NODE": 70.882, "ARG_OF_PERICENTER": 210.3492, "MEAN_ANOMALY": 165.3948, "EPHEMERIS_TYPE": 0, "CLASSIFICATION_TYPE": "U", "NORAD_CAT_ID": 66755, "ELEMENT_SET_NO": 999, "REV_AT_EPOCH": 503, "BSTAR": -0.002639719, "MEAN_MOTION_DOT": -0.00052814, "MEAN_MOTION_DDOT": 0}, "tle": {"line1": "1 66755U 25276CT  25359.33334491 -.00052814  00000+0 -26397-2 0  9995", "line2": "2 66755  97.4401  70.8820 0001105 210.3492 165.3948 15.17675138  5037"}}, "geometry": {"type": "Point", "coordinates": [-98.06346982987861, 55.04861046454793]}}, {"type": "Feature", "properties": {"norad_id": 66756, "name": "TRANSPORTER-15CU", "group": "last-30-days", "lat": 23.563508974481408, "lon": -105.55370644786152, "alt_km": 510.335276526047, "timestamp": "2025-12-25T14:48:23.569844+00:00", "meta": {"OBJECT_NAME": "TRANSPORTER-15CU", "OBJECT_ID": "2025-276CU", "EPOCH": "2025-12-25T06:12:38.833056", "MEAN_MOTION": 15.17975415, "ECCENTRICITY": 0.00017366, "INCLINATION": 97.4408, "RA_OF_ASC_NODE": 70.8266, "ARG_OF_PERICENTER": 150.72, "MEAN_ANOMALY": 209.4131, "EPHEMERIS_TYPE": 0, "CLASSIFICATION_TYPE": "U", "NORAD_CAT_ID": 66756, "ELEMENT_SET_NO": 999, "REV_AT_EPOCH": 402, "BSTAR": 0.00049891988, "MEAN_MOTION_DOT": 0.00010077, "MEAN_MOTION_DDOT": 0}, "tle": {"line1": "1 66756U 25276CU  25359.25878279  .00010077  00000+0  49892-3 0  9993", "line2": "2 66756  97.4408  70.8266 0001736 150.7200 209.4131 15.17975415  4026"}}, "geometry": {"type": "Point", "coordinates": [-105.55370644786152, 23.563508974481408]}}]}